{
  "type": "FeatureCollection",
  "features": [
    {
      "type": "Feature",
      "properties": {
        "norad_id": 35123,
        "name": "FENGYUN 1C DEB",
        "group": "fengyun-1c-debris",
        "lat": -7.998715656008969,
        "lon": 173.23653321481848,
        "alt_km": 806.993108987208,
        "timestamp": "2025-12-15T04:01:20.738903+00:00",
        "meta_object_name": "FENGYUN 1C DEB",
        "meta_object_id": "1999-025DLB",
        "meta_epoch": "2025-12-13T18:20:19.988736",
        "meta_mean_motion": 14.24220161,
        "meta_eccentricity": 0.00496478,
        "meta_inclination": 99.1227,
        "meta_ra_of_asc_node": 170.4866,
        "meta_arg_of_pericenter": 73.37,
        "meta_mean_anomaly": 287.2921,
        "meta_ephemeris_type": 0,
        "meta_classification_type": "U",
        "meta_norad_cat_id": 35123,
        "meta_element_set_no": 999,
        "meta_rev_at_epoch": 61088,
        "meta_bstar": 0.00074233743,
        "meta_mean_motion_dot": 1.687e-05,
        "meta_mean_motion_ddot": 0,
        "tle_line1": "1 35123U 99025DLB 25347.76412024  .00001687  00000+0  74234-3 0  9990",
        "tle_line2": "2 35123  99.1227 170.4866 0049647  73.3700 287.2921 14.24220161610885"
      },
      "geometry": {
        "type": "Point",
        "coordinates": [
          173.23653321481848,
          -7.998715656008969
        ]
      }
    },
    {
      "type": "Feature",
      "properties": {
        "norad_id": 35125,
        "name": "FENGYUN 1C DEB",
        "group": "fengyun-1c-debris",
        "lat": 26.33803718729742,
        "lon": -175.8094782677359,
        "alt_km": 806.1474512476116,
        "timestamp": "2025-12-15T04:01:20.738913+00:00",
        "meta_object_name": "FENGYUN 1C DEB",
        "meta_object_id": "1999-025DLD",
        "meta_epoch": "2025-12-08T07:05:36.118752",
        "meta_mean_motion": 14.33084151,
        "meta_eccentricity": 0.00521413,
        "meta_inclination": 98.2165,
        "meta_ra_of_asc_node": 353.5679,
        "meta_arg_of_pericenter": 308.0323,
        "meta_mean_anomaly": 51.6162,
        "meta_ephemeris_type": 0,
        "meta_classification_type": "U",
        "meta_norad_cat_id": 35125,
        "meta_element_set_no": 999,
        "meta_rev_at_epoch": 31218,
        "meta_bstar": 0.0020544677,
        "meta_mean_motion_dot": 5.68e-05,
        "meta_mean_motion_ddot": 0,
        "tle_line1": "1 35125U 99025DLD 25342.29555693  .00005680  00000+0  20545-2 0  9997",
        "tle_line2": "2 35125  98.2165 353.5679 0052141 308.0323  51.6162 14.33084151312185"
      },
      "geometry": {
        "type": "Point",
        "coordinates": [
          -175.8094782677359,
          26.33803718729742
        ]
      }
    },
    {
      "type": "Feature",
      "properties": {
        "norad_id": 35130,
        "name": "FENGYUN 1C DEB",
        "group": "fengyun-1c-debris",
        "lat": -29.316448604524442,
        "lon": -160.7517157972053,
        "alt_km": 570.6083229878177,
        "timestamp": "2025-12-15T04:01:20.738923+00:00",
        "meta_object_name": "FENGYUN 1C DEB",
        "meta_object_id": "1999-025DLJ",
        "meta_epoch": "2025-12-14T07:21:05.871744",
        "meta_mean_motion": 15.00596646,
        "meta_eccentricity": 0.00101464,
        "meta_inclination": 99.0323,
        "meta_ra_of_asc_node": 193.1239,
        "meta_arg_of_pericenter": 65.1108,
        "meta_mean_anomaly": 295.1165,
        "meta_ephemeris_type": 0,
        "meta_classification_type": "U",
        "meta_norad_cat_id": 35130,
        "meta_element_set_no": 999,
        "meta_rev_at_epoch": 64937,
        "meta_bstar": 0.0087033877,
        "meta_mean_motion_dot": 0.00111682,
        "meta_mean_motion_ddot": 0,
        "tle_line1": "1 35130U 99025DLJ 25348.30631796  .00111682  00000+0  87034-2 0  9996",
        "tle_line2": "2 35130  99.0323 193.1239 0010146  65.1108 295.1165 15.00596646649371"
      },
      "geometry": {
        "type": "Point",
        "coordinates": [
          -160.7517157972053,
          -29.316448604524442
        ]
      }
    },
    {
      "type": "Feature",
      "properties": {
        "norad_id": 35135,
        "name": "FENGYUN 1C DEB",
        "group": "fengyun-1c-debris",
        "lat": 38.81413179680198,
        "lon": -175.1367889253705,
        "alt_km": 855.9033923911566,
        "timestamp": "2025-12-15T04:01:20.738933+00:00",
        "meta_object_name": "FENGYUN 1C DEB",
        "meta_object_id": "1999-025DLP",
        "meta_epoch": "2025-12-14T07:05:58.665696",
        "meta_mean_motion": 14.22543033,
        "meta_eccentricity": 0.00807425,
        "meta_inclination": 98.5623,
        "meta_ra_of_asc_node": 357.0551,
        "meta_arg_of_pericenter": 279.8808,
        "meta_mean_anomaly": 79.3262,
        "meta_ephemeris_type": 0,
        "meta_classification_type": "U",
        "meta_norad_cat_id": 35135,
        "meta_element_set_no": 999,
        "meta_rev_at_epoch": 87846,
        "meta_bstar": 0.00063746492,
        "meta_mean_motion_dot": 1.428e-05,
        "meta_mean_motion_ddot": 0,
        "tle_line1": "1 35135U 99025DLP 25348.29581789  .00001428  00000+0  63746-3 0  9996",
        "tle_line2": "2 35135  98.5623 357.0551 0080742 279.8808  79.3262 14.22543033878460"
      },
      "geometry": {
        "type": "Point",
        "coordinates": [
          -175.1367889253705,
          38.81413179680198
        ]
      }
    },
    {
      "type": "Feature",
      "properties": {
        "norad_id": 35139,
        "name": "FENGYUN 1C DEB",
        "group": "fengyun-1c-debris",
        "lat": -40.11199592274168,
        "lon": 167.00821116960586,
        "alt_km": 811.3312669667821,
        "timestamp": "2025-12-15T04:01:20.738943+00:00",
        "meta_object_name": "FENGYUN 1C DEB",
        "meta_object_id": "1999-025DLT",
        "meta_epoch": "2025-11-29T06:46:18.583392",
        "meta_mean_motion": 14.21054019,
        "meta_eccentricity": 0.00685814,
        "meta_inclination": 98.5841,
        "meta_ra_of_asc_node": 338.8823,
        "meta_arg_of_pericenter": 336.9878,
        "meta_mean_anomaly": 22.8231,
        "meta_ephemeris_type": 0,
        "meta_classification_type": "U",
        "meta_norad_cat_id": 35139,
        "meta_element_set_no": 999,
        "meta_rev_at_epoch": 63962,
        "meta_bstar": 0.00042081079,
        "meta_mean_motion_dot": 8.92e-06,
        "meta_mean_motion_ddot": 0,
        "tle_line1": "1 35139U 99025DLT 25333.28215953  .00000892  00000+0  42081-3 0  9993",
        "tle_line2": "2 35139  98.5841 338.8823 0068581 336.9878  22.8231 14.21054019639626"
      },
      "geometry": {
        "type": "Point",
        "coordinates": [
          167.00821116960586,
          -40.11199592274168
        ]
      }
    },
    {
      "type": "Feature",
      "properties": {
        "norad_id": 35140,
        "name": "FENGYUN 1C DEB",
        "group": "fengyun-1c-debris",
        "lat": -48.37249248914599,
        "lon": -19.93923453426969,
        "alt_km": 620.5471335385655,
        "timestamp": "2025-12-15T04:01:20.738953+00:00",
        "meta_object_name": "FENGYUN 1C DEB",
        "meta_object_id": "1999-025DLU",
        "meta_epoch": "2025-12-14T04:35:17.926080",
        "meta_mean_motion": 14.21349423,
        "meta_eccentricity": 0.02906296,
        "meta_inclination": 98.4433,
        "meta_ra_of_asc_node": 329.5041,
        "meta_arg_of_pericenter": 322.4095,
        "meta_mean_anomaly": 35.7077,
        "meta_ephemeris_type": 0,
        "meta_classification_type": "U",
        "meta_norad_cat_id": 35140,
        "meta_element_set_no": 999,
        "meta_rev_at_epoch": 87299,
        "meta_bstar": 0.00031148467,
        "meta_mean_motion_dot": 9.92e-06,
        "meta_mean_motion_ddot": 0,
        "tle_line1": "1 35140U 99025DLU 25348.19117970  .00000992  00000+0  31148-3 0  9994",
        "tle_line2": "2 35140  98.4433 329.5041 0290629 322.4095  35.7077 14.21349423872990"
      },
      "geometry": {
        "type": "Point",
        "coordinates": [
          -19.93923453426969,
          -48.37249248914599
        ]
      }
    },
    {
      "type": "Feature",
      "properties": {
        "norad_id": 35142,
        "name": "FENGYUN 1C DEB",
        "group": "fengyun-1c-debris",
        "lat": -23.028298948324405,
        "lon": -14.860632165930378,
        "alt_km": 981.4194833849988,
        "timestamp": "2025-12-15T04:01:20.738963+00:00",
        "meta_object_name": "FENGYUN 1C DEB",
        "meta_object_id": "1999-025DLW",
        "meta_epoch": "2025-12-10T17:57:11.594304",
        "meta_mean_motion": 13.90505391,
        "meta_eccentricity": 0.01075768,
        "meta_inclination": 99.0447,
        "meta_ra_of_asc_node": 336.9569,
        "meta_arg_of_pericenter": 219.5001,
        "meta_mean_anomaly": 324.8218,
        "meta_ephemeris_type": 0,
        "meta_classification_type": "U",
        "meta_norad_cat_id": 35142,
        "meta_element_set_no": 999,
        "meta_rev_at_epoch": 85661,
        "meta_bstar": 0.00028188701,
        "meta_mean_motion_dot": 3.24e-06,
        "meta_mean_motion_ddot": 0,
        "tle_line1": "1 35142U 99025DLW 25344.74805086  .00000324  00000+0  28189-3 0  9995",
        "tle_line2": "2 35142  99.0447 336.9569 0107576 219.5001 324.8218 13.90505391856615"
      },
      "geometry": {
        "type": "Point",
        "coordinates": [
          -14.860632165930378,
          -23.028298948324405
        ]
      }
    }
  ]
}